{"fetched_at":"2026-07-17T17:37:53.421Z","source":"https://celestrak.org/NORAD/elements/gp.php?GROUP=oneweb&FORMAT=JSON","constellation":"oneweb","records":[{"OBJECT_NAME":"ONEWEB-0457","OBJECT_ID":"2022-012AB","EPOCH":"2026-07-17T06:03:31.609152","CLASSIFICATION_TYPE":"U","MEAN_MOTION":13.10372166,"ECCENTRICITY":0.00020768,"INCLINATION":87.8815,"RA_OF_ASC_NODE":30.2792,"ARG_OF_PERICENTER":79.0623,"MEAN_ANOMALY":281.0738,"EPHEMERIS_TYPE":0,"NORAD_CAT_ID":51647,"ELEMENT_SET_NO":999,"REV_AT_EPOCH":21328,"BSTAR":-0.0017988524,"MEAN_MOTION_DOT":-0.00000615,"MEAN_MOTION_DDOT":0},{"OBJECT_NAME":"ONEWEB-0458","OBJECT_ID":"2022-012AC","EPOCH":"2026-07-17T06:34:17.193504","CLASSIFICATION_TYPE":"U","MEAN_MOTION":13.10376316,"ECCENTRICITY":0.00016367,"INCLINATION":87.8823,"RA_OF_ASC_NODE":30.2635,"ARG_OF_PERICENTER":87.2106,"MEAN_ANOMALY":272.9209,"EPHEMERIS_TYPE":0,"NORAD_CAT_ID":51648,"ELEMENT_SET_NO":999,"REV_AT_EPOCH":21324,"BSTAR":0.000013728993,"MEAN_MOTION_DOT":1.7e-7,"MEAN_MOTION_DDOT":0},{"OBJECT_NAME":"ONEWEB-0461","OBJECT_ID":"2022-012AD","EPOCH":"2026-07-17T03:33:01.596096","CLASSIFICATION_TYPE":"U","MEAN_MOTION":13.17650544,"ECCENTRICITY":0.00019244,"INCLINATION":87.9158,"RA_OF_ASC_NODE":359.899,"ARG_OF_PERICENTER":90.3092,"MEAN_ANOMALY":269.826,"EPHEMERIS_TYPE":0,"NORAD_CAT_ID":51649,"ELEMENT_SET_NO":999,"REV_AT_EPOCH":21783,"BSTAR":0.0001424971,"MEAN_MOTION_DOT":6.8e-7,"MEAN_MOTION_DDOT":0},{"OBJECT_NAME":"ONEWEB-0463","OBJECT_ID":"2022-012AE","EPOCH":"2026-07-16T23:27:35.923968","CLASSIFICATION_TYPE":"U","MEAN_MOTION":13.17650523,"ECCENTRICITY":0.00019664,"INCLINATION":87.9147,"RA_OF_ASC_NODE":359.9528,"ARG_OF_PERICENTER":90.6653,"MEAN_ANOMALY":269.4704,"EPHEMERIS_TYPE":0,"NORAD_CAT_ID":51650,"ELEMENT_SET_NO":999,"REV_AT_EPOCH":21759,"BSTAR":0.00010807534,"MEAN_MOTION_DOT":5.5e-7,"MEAN_MOTION_DDOT":0},{"OBJECT_NAME":"ONEWEB-0464","OBJECT_ID":"2022-012AF","EPOCH":"2026-07-16T14:01:02.221536","CLASSIFICATION_TYPE":"U","MEAN_MOTION":13.10375512,"ECCENTRICITY":0.00016038,"INCLINATION":87.8817,"RA_OF_ASC_NODE":30.422,"ARG_OF_PERICENTER":94.2141,"MEAN_ANOMALY":265.9169,"EPHEMERIS_TYPE":0,"NORAD_CAT_ID":51651,"ELEMENT_SET_NO":999,"REV_AT_EPOCH":21317,"BSTAR":-0.000058394823,"MEAN_MOTION_DOT":-8e-8,"MEAN_MOTION_DDOT":0},{"OBJECT_NAME":"ONEWEB-0468","OBJECT_ID":"2022-012AG","EPOCH":"2026-07-17T06:37:56.398944","CLASSIFICATION_TYPE":"U","MEAN_MOTION":13.10375125,"ECCENTRICITY":0.00017085,"INCLINATION":87.8815,"RA_OF_ASC_NODE":30.277,"ARG_OF_PERICENTER":94.9556,"MEAN_ANOMALY":265.1766,"EPHEMERIS_TYPE":0,"NORAD_CAT_ID":51652,"ELEMENT_SET_NO":999,"REV_AT_EPOCH":21324,"BSTAR":0.00040147118,"MEAN_MOTION_DOT":0.00000153,"MEAN_MOTION_DDOT":0},{"OBJECT_NAME":"ONEWEB-0473","OBJECT_ID":"2022-012AH","EPOCH":"2026-07-17T06:18:24.255072","CLASSIFICATION_TYPE":"U","MEAN_MOTION":13.10376054,"ECCENTRICITY":0.00018732,"INCLINATION":87.8815,"RA_OF_ASC_NODE":30.282,"ARG_OF_PERICENTER":90.1763,"MEAN_ANOMALY":269.9579,"EPHEMERIS_TYPE":0,"NORAD_CAT_ID":51653,"ELEMENT_SET_NO":999,"REV_AT_EPOCH":21324,"BSTAR":-0.0015108707,"MEAN_MOTION_DOT":-0.00000515,"MEAN_MOTION_DDOT":0},{"OBJECT_NAME":"ONEWEB-0474","OBJECT_ID":"2022-012AJ","EPOCH":"2026-07-16T13:36:34.612128","CLASSIFICATION_TYPE":"U","MEAN_MOTION":13.10374712,"ECCENTRICITY":0.00015804,"INCLINATION":87.8824,"RA_OF_ASC_NODE":30.4078,"ARG_OF_PERICENTER":94.8697,"MEAN_ANOMALY":265.2611,"EPHEMERIS_TYPE":0,"NORAD_CAT_ID":51654,"ELEMENT_SET_NO":999,"REV_AT_EPOCH":21314,"BSTAR":-0.0019249999,"MEAN_MOTION_DOT":-0.00000659,"MEAN_MOTION_DDOT":0},{"OBJECT_NAME":"ONEWEB-0475","OBJECT_ID":"2022-012AK","EPOCH":"2026-07-16T10:59:11.042016","CLASSIFICATION_TYPE":"U","MEAN_MOTION":13.17649203,"ECCENTRICITY":0.0001472,"INCLINATION":87.9149,"RA_OF_ASC_NODE":0.0494,"ARG_OF_PERICENTER":113.3559,"MEAN_ANOMALY":246.7727,"EPHEMERIS_TYPE":0,"NORAD_CAT_ID":51655,"ELEMENT_SET_NO":999,"REV_AT_EPOCH":21754,"BSTAR":0.00016443,"MEAN_MOTION_DOT":7.7e-7,"MEAN_MOTION_DDOT":0},{"OBJECT_NAME":"ONEWEB-0490","OBJECT_ID":"2022-138A","EPOCH":"2026-07-17T05:36:44.379072","CLASSIFICATION_TYPE":"U","MEAN_MOTION":13.19727009,"ECCENTRICITY":0.00020937,"INCLINATION":87.9192,"RA_OF_ASC_NODE":298.9857,"ARG_OF_PERICENTER":104.9221,"MEAN_ANOMALY":255.2144,"EPHEMERIS_TYPE":0,"NORAD_CAT_ID":54113,"ELEMENT_SET_NO":999,"REV_AT_EPOCH":18079,"BSTAR":0.00027730155,"MEAN_MOTION_DOT":0.00000124,"MEAN_MOTION_DDOT":0},{"OBJECT_NAME":"ONEWEB-0492","OBJECT_ID":"2022-138B","EPOCH":"2026-07-17T06:13:07.019328","CLASSIFICATION_TYPE":"U","MEAN_MOTION":13.19723815,"ECCENTRICITY":0.00022637,"INCLINATION":87.9186,"RA_OF_ASC_NODE":298.9798,"ARG_OF_PERICENTER":103.4683,"MEAN_ANOMALY":256.6702,"EPHEMERIS_TYPE":0,"NORAD_CAT_ID":54114,"ELEMENT_SET_NO":999,"REV_AT_EPOCH":18080,"BSTAR":0.000048588249,"MEAN_MOTION_DOT":3.2e-7,"MEAN_MOTION_DDOT":0},{"OBJECT_NAME":"ONEWEB-0495","OBJECT_ID":"2022-138C","EPOCH":"2026-07-16T18:46:14.107872","CLASSIFICATION_TYPE":"U","MEAN_MOTION":13.19726424,"ECCENTRICITY":0.00022717,"INCLINATION":87.9186,"RA_OF_ASC_NODE":299.0776,"ARG_OF_PERICENTER":117.2279,"MEAN_ANOMALY":242.9086,"EPHEMERIS_TYPE":0,"NORAD_CAT_ID":54115,"ELEMENT_SET_NO":999,"REV_AT_EPOCH":18072,"BSTAR":0.000079612446,"MEAN_MOTION_DOT":4.5e-7,"MEAN_MOTION_DDOT":0},{"OBJECT_NAME":"ONEWEB-0497","OBJECT_ID":"2022-138D","EPOCH":"2026-07-17T05:59:28.070016","CLASSIFICATION_TYPE":"U","MEAN_MOTION":13.19723433,"ECCENTRICITY":0.00020478,"INCLINATION":87.9192,"RA_OF_ASC_NODE":298.9787,"ARG_OF_PERICENTER":103.1109,"MEAN_ANOMALY":257.0252,"EPHEMERIS_TYPE":0,"NORAD_CAT_ID":54116,"ELEMENT_SET_NO":999,"REV_AT_EPOCH":18077,"BSTAR":0.00008469322,"MEAN_MOTION_DOT":4.7e-7,"MEAN_MOTION_DDOT":0},{"OBJECT_NAME":"ONEWEB-0499","OBJECT_ID":"2022-138E","EPOCH":"2026-07-17T05:35:36.260448","CLASSIFICATION_TYPE":"U","MEAN_MOTION":13.19724645,"ECCENTRICITY":0.00019995,"INCLINATION":87.9185,"RA_OF_ASC_NODE":298.9888,"ARG_OF_PERICENTER":107.6868,"MEAN_ANOMALY":252.4483,"EPHEMERIS_TYPE":0,"NORAD_CAT_ID":54117,"ELEMENT_SET_NO":999,"REV_AT_EPOCH":18078,"BSTAR":0.00013967951,"MEAN_MOTION_DOT":6.9e-7,"MEAN_MOTION_DDOT":0},{"OBJECT_NAME":"ONEWEB-0500","OBJECT_ID":"2022-138F","EPOCH":"2026-07-17T05:39:01.587456","CLASSIFICATION_TYPE":"U","MEAN_MOTION":13.19726347,"ECCENTRICITY":0.00020984,"INCLINATION":87.9194,"RA_OF_ASC_NODE":298.9848,"ARG_OF_PERICENTER":98.8755,"MEAN_ANOMALY":261.2615,"EPHEMERIS_TYPE":0,"NORAD_CAT_ID":54118,"ELEMENT_SET_NO":999,"REV_AT_EPOCH":18079,"BSTAR":0.00033588296,"MEAN_MOTION_DOT":0.00000147,"MEAN_MOTION_DDOT":0},{"OBJECT_NAME":"ONEWEB-0501","OBJECT_ID":"2022-138G","EPOCH":"2026-07-17T06:22:14.800512","CLASSIFICATION_TYPE":"U","MEAN_MOTION":13.1972602,"ECCENTRICITY":0.00021302,"INCLINATION":87.9194,"RA_OF_ASC_NODE":298.9787,"ARG_OF_PERICENTER":111.9332,"MEAN_ANOMALY":248.2027,"EPHEMERIS_TYPE":0,"NORAD_CAT_ID":54119,"ELEMENT_SET_NO":999,"REV_AT_EPOCH":18077,"BSTAR":0.000001853713,"MEAN_MOTION_DOT":1.4e-7,"MEAN_MOTION_DDOT":0},{"OBJECT_NAME":"ONEWEB-0502","OBJECT_ID":"2022-138H","EPOCH":"2026-07-17T06:01:44.337504","CLASSIFICATION_TYPE":"U","MEAN_MOTION":13.19723603,"ECCENTRICITY":0.00019342,"INCLINATION":87.9196,"RA_OF_ASC_NODE":298.9702,"ARG_OF_PERICENTER":107.5944,"MEAN_ANOMALY":252.54,"EPHEMERIS_TYPE":0,"NORAD_CAT_ID":54120,"ELEMENT_SET_NO":999,"REV_AT_EPOCH":18079,"BSTAR":0.00017180873,"MEAN_MOTION_DOT":8.2e-7,"MEAN_MOTION_DDOT":0},{"OBJECT_NAME":"ONEWEB-0503","OBJECT_ID":"2022-138J","EPOCH":"2026-07-17T05:45:50.344128","CLASSIFICATION_TYPE":"U","MEAN_MOTION":13.19726674,"ECCENTRICITY":0.00017615,"INCLINATION":87.9197,"RA_OF_ASC_NODE":298.979,"ARG_OF_PERICENTER":99.0461,"MEAN_ANOMALY":261.0871,"EPHEMERIS_TYPE":0,"NORAD_CAT_ID":54121,"ELEMENT_SET_NO":999,"REV_AT_EPOCH":18078,"BSTAR":0.00021556108,"MEAN_MOTION_DOT":9.9e-7,"MEAN_MOTION_DDOT":0},{"OBJECT_NAME":"ONEWEB-0504","OBJECT_ID":"2022-138K","EPOCH":"2026-07-16T20:21:45.847584","CLASSIFICATION_TYPE":"U","MEAN_MOTION":13.19726354,"ECCENTRICITY":0.00018971,"INCLINATION":87.9194,"RA_OF_ASC_NODE":299.0616,"ARG_OF_PERICENTER":107.2338,"MEAN_ANOMALY":252.9002,"EPHEMERIS_TYPE":0,"NORAD_CAT_ID":54122,"ELEMENT_SET_NO":999,"REV_AT_EPOCH":18074,"BSTAR":0.000004735588,"MEAN_MOTION_DOT":1.5e-7,"MEAN_MOTION_DDOT":0},{"OBJECT_NAME":"ONEWEB-0505","OBJECT_ID":"2022-138L","EPOCH":"2026-07-17T05:23:04.476768","CLASSIFICATION_TYPE":"U","MEAN_MOTION":13.19724085,"ECCENTRICITY":0.00020691,"INCLINATION":87.919,"RA_OF_ASC_NODE":298.9872,"ARG_OF_PERICENTER":113.5799,"MEAN_ANOMALY":246.5552,"EPHEMERIS_TYPE":0,"NORAD_CAT_ID":54123,"ELEMENT_SET_NO":999,"REV_AT_EPOCH":18077,"BSTAR":0.00025565676,"MEAN_MOTION_DOT":0.00000115,"MEAN_MOTION_DDOT":0},{"OBJECT_NAME":"ONEWEB-0506","OBJECT_ID":"2022-138M","EPOCH":"2026-07-16T19:40:50.476224","CLASSIFICATION_TYPE":"U","MEAN_MOTION":13.19725505,"ECCENTRICITY":0.00020409,"INCLINATION":87.9197,"RA_OF_ASC_NODE":299.0651,"ARG_OF_PERICENTER":110.125,"MEAN_ANOMALY":250.0102,"EPHEMERIS_TYPE":0,"NORAD_CAT_ID":54124,"ELEMENT_SET_NO":999,"REV_AT_EPOCH":18071,"BSTAR":-0.00001725351,"MEAN_MOTION_DOT":6e-8,"MEAN_MOTION_DDOT":0},{"OBJECT_NAME":"ONEWEB-0507","OBJECT_ID":"2022-138N","EPOCH":"2026-07-17T05:16:15.892896","CLASSIFICATION_TYPE":"U","MEAN_MOTION":13.19727377,"ECCENTRICITY":0.00021071,"INCLINATION":87.9186,"RA_OF_ASC_NODE":298.995,"ARG_OF_PERICENTER":106.0067,"MEAN_ANOMALY":254.1298,"EPHEMERIS_TYPE":0,"NORAD_CAT_ID":54125,"ELEMENT_SET_NO":999,"REV_AT_EPOCH":18081,"BSTAR":0.00019288789,"MEAN_MOTION_DOT":9e-7,"MEAN_MOTION_DDOT":0},{"OBJECT_NAME":"ONEWEB-0508","OBJECT_ID":"2022-138P","EPOCH":"2026-07-17T05:11:43.622304","CLASSIFICATION_TYPE":"U","MEAN_MOTION":13.19726652,"ECCENTRICITY":0.0002282,"INCLINATION":87.9186,"RA_OF_ASC_NODE":298.9953,"ARG_OF_PERICENTER":110.3431,"MEAN_ANOMALY":249.7947,"EPHEMERIS_TYPE":0,"NORAD_CAT_ID":54126,"ELEMENT_SET_NO":999,"REV_AT_EPOCH":18079,"BSTAR":0.00022352796,"MEAN_MOTION_DOT":0.00000102,"MEAN_MOTION_DDOT":0}]}
